SL-16 R/B               
1 24298U 96051B   26189.20637135  .00000133  00000+0  98686-4 0  9996
2 24298  70.7652 280.1664 0017230 307.2768  52.6780 14.12453748538662
ORBVIEW 2 (SEASTAR)     
1 24883U 97037A   26188.92966215  .00000171  00000+0  75493-4 0  9996
2 24883  98.8708 356.5254 0003264  75.2934 284.8612 14.35564301525726
SL-16 R/B               
1 25400U 98043G   26188.99065551  .00000022  00000+0  28264-4 0  9999
2 25400  98.8375 143.3299 0010413  31.4569 328.7232 14.26071955456137
SL-16 R/B               
1 25407U 98045B   26188.71930464 -.00000121  00000+0 -36805-4 0  9994
2 25407  71.0124 289.1500 0008544 216.7692 143.2846 14.16207697444096
ISS (ZARYA)             
1 25544U 98067A   26189.15353387  .00005161  00000+0  10196-3 0  9993
2 25544  51.6304 196.3226 0006696 270.4034  89.6187 15.48940380575005
CZ-4B R/B               
1 25732U 99025C   26188.74746411  .00000029  00000+0  34564-4 0  9999
2 25732  98.6473 230.0675 0037075   1.3503 108.4620 14.18286844405180
OKEAN-O                 
1 25860U 99039A   26189.16428993  .00000418  00000+0  61434-4 0  9993
2 25860  97.9305 247.7203 0001027  76.0350 284.0976 14.80491978452213
SL-16 R/B               
1 25861U 99039B   26189.09906959  .00000324  00000+0  47767-4 0  9998
2 25861  97.9826 247.9015 0013828 222.5677 137.4465 14.81865848454697
DELTA 2 R/B             
1 25876U 99041E   26187.99421649  .00001209  00000+0  23261-3 0  9997
2 25876  51.7610 184.6656 0501202 340.5445  17.6943 14.12061027379880
HELIOS 1B               
1 25977U 99064A   26189.15867943  .00001096  00000+0  12564-3 0  9993
2 25977  98.1595  94.9040 0002240  62.6969 297.4474 14.88062966703176
TERRA                   
1 25994U 99068A   26189.18153823  .00000284  00000+0  66815-4 0  9991
2 25994  97.9444 237.8942 0003081 136.7787 300.5111 14.61119919412677
SL-16 R/B               
1 26070U 00006B   26189.04840981 -.00000228  00000+0 -91262-4 0  9998
2 26070  71.0004 204.7608 0016890 350.1137   9.9651 14.15840160365598
TITAN 4B R/B            
1 26474U 00047B   26189.12068448  .00001619  00000+0  10461-3 0  9994
2 26474  67.9888  61.6454 0046031 265.7586  93.8302 15.10311268411098
ENVISAT                 
1 27386U 02009A   26188.90081803  .00000057  00000+0  32300-4 0  9994
2 27386  98.3843 139.7583 0001356  84.1029 343.9578 14.39069634276467
IDEFIX & ARIANE 42P R/B 
1 27422U 02021B   26188.82499484  .00000141  00000+0  69967-4 0  9991
2 27422  98.5942 126.0847 0011426 188.1878 171.9120 14.31091489261201
AQUA                    
1 27424U 02022A   26189.19868323  .00000550  00000+0  11910-3 0  9995
2 27424  98.4289 158.9030 0000740  99.2232 317.2244 14.62189936286340
CZ-4B R/B               
1 27432U 02024C   26189.09994426  .00000005  00000+0  25461-4 0  9991
2 27432  98.8689 241.7832 0050820  41.9474 346.1653 14.14567571246268
MIDORI II (ADEOS-II)    
1 27597U 02056A   26188.85845655  .00000173  00000+0  85720-4 0  9990
2 27597  98.7889 148.2951 0001773  49.8161 310.3176 14.29360472227468
H-2A R/B                
1 27601U 02056E   26188.87685183  .00000161  00000+0  70963-4 0  9996
2 27601  98.3323 144.7983 0070430 162.5650 256.9976 14.33831191231331
CZ-4B R/B               
1 28059U 03049C   26188.99785233  .00000179  00000+0  52833-4 0  9992
2 28059  98.6905 188.6735 0047248 223.5302 136.2161 14.55112840204099
CZ-2C R/B               
1 28222U 04012C   26188.79231491  .00089924  00000+0  40687-3 0  9993
2 28222  97.7053 266.9216 0011124 214.0361 146.0196 15.83625047223158
SL-16 R/B               
1 28353U 04021B   26188.80919595  .00000261  00000+0  16058-3 0  9990
2 28353  71.0021 340.4086 0006505 231.2930 128.7611 14.14614072139824
CZ-4B R/B               
1 28415U 04035C   26189.05061462  .00004403  00000+0  14816-3 0  9995
2 28415  97.3363 221.8914 0028866 259.4014 100.3975 15.30924236198317
CZ-2C R/B               
1 28480U 04046B   26189.15652242  .00000069  00000+0  40467-4 0  9998
2 28480  98.1927  96.6251 0139727 158.1202 202.6028 14.27031683125684
ARIANE 5 R/B            
1 28499U 04049H   26188.94428273  .00000391  00000+0  49924-4 0  9997
2 28499  98.2736   2.0011 0082998 322.0693  37.4691 14.85473275163640
CZ-2D R/B               
1 28738U 05024B   26189.05154394  .00040986  00000+0  31360-3 0  9998
2 28738  97.3480 209.5557 0001204 221.8324 138.2847 15.72050536158611
ALOS (DAICHI)           
1 28931U 06002A   26189.12253302  .00000765  00000+0  13556-3 0  9995
2 28931  98.1333 144.6261 0000776  77.9874 282.1419 14.70092501 91172
H-2A R/B                
1 28932U 06002B   26188.94764977  .00004505  00000+0  21616-3 0  9992
2 28932  98.2586 346.6613 0050309 190.6572 169.3598 15.18366267112673
RESURS-DK 1             
1 29228U 06021A   26188.26242769  .00001509  00000+0  90655-4 0  9998
2 29228  69.9330 287.5844 0006734 279.9257  80.1149 15.13300743105617
CZ-4B R/B               
1 29507U 06046C   26189.15084802  .00002676  00000+0  13360-3 0  9999
2 29507  97.5442 233.6933 0031880 206.7987 153.1601 15.17944012 78314
CZ-2C R/B               
1 31114U 07010B   26188.91264652  .00000050  00000+0  42349-4 0  9998
2 31114  98.4113 296.2516 0057941 305.3713  54.2059 14.20280597996789
