OBJECT_NAME,OBJECT_ID,EPOCH,MEAN_MOTION,ECCENTRICITY,INCLINATION,RA_OF_ASC_NODE,ARG_OF_PERICENTER,MEAN_ANOMALY,EPHEMERIS_TYPE,CLASSIFICATION_TYPE,NORAD_CAT_ID,ELEMENT_SET_NO,REV_AT_EPOCH,BSTAR,MEAN_MOTION_DOT,MEAN_MOTION_DDOT
SL-16 R/B,1996-051B,2026-07-08T04:57:10.484640,14.12453748,.001723,70.7652,280.1664,307.2768,52.6780,0,U,24298,999,53866,.98686E-4,.133E-5,0
ORBVIEW 2 (SEASTAR),1997-037A,2026-07-07T22:18:42.809760,14.35564301,.0003264,98.8708,356.5254,75.2934,284.8612,0,U,24883,999,52572,.75493E-4,.171E-5,0
SL-16 R/B,1998-043G,2026-07-07T23:46:32.636064,14.26071955,.0010413,98.8375,143.3299,31.4569,328.7232,0,U,25400,999,45613,.28264E-4,.22E-6,0
SL-16 R/B,1998-045B,2026-07-07T17:15:47.920896,14.16207697,.0008544,71.0124,289.1500,216.7692,143.2846,0,U,25407,999,44409,-.36805E-4,-.121E-5,0
ISS (ZARYA),1998-067A,2026-07-08T03:41:05.326368,15.48940380,.0006696,51.6304,196.3226,270.4034,89.6187,0,U,25544,999,57500,.10196E-3,.5161E-4,0
CZ-4B R/B,1999-025C,2026-07-07T17:56:20.899104,14.18286844,.0037075,98.6473,230.0675,1.3503,108.4620,0,U,25732,999,40518,.34564E-4,.29E-6,0
OKEAN-O,1999-039A,2026-07-08T03:56:34.649952,14.80491978,.0001027,97.9305,247.7203,76.0350,284.0976,0,U,25860,999,45221,.61434E-4,.418E-5,0
SL-16 R/B,1999-039B,2026-07-08T02:22:39.612576,14.81865848,.0013828,97.9826,247.9015,222.5677,137.4465,0,U,25861,999,45469,.47767E-4,.324E-5,0
DELTA 2 R/B,1999-041E,2026-07-06T23:51:40.304736,14.12061027,.05012025,51.7610,184.6656,340.5445,17.6943,0,U,25876,999,37988,.23260822E-3,.1209E-4,0
HELIOS 1B,1999-064A,2026-07-08T03:48:29.902752,14.88062966,.000224,98.1595,94.9040,62.6969,297.4474,0,U,25977,999,70317,.12564E-3,.1096E-4,0
TERRA,1999-068A,2026-07-08T04:21:24.903072,14.61119919,.0003081,97.9444,237.8942,136.7787,300.5111,0,U,25994,999,41267,.66815E-4,.284E-5,0
SL-16 R/B,2000-006B,2026-07-08T01:09:42.607584,14.15840160,.001689,71.0004,204.7608,350.1137,9.9651,0,U,26070,999,36559,-.91262E-4,-.228E-5,0
TITAN 4B R/B,2000-047B,2026-07-08T02:53:47.139072,15.10311268,.0046031,67.9888,61.6454,265.7586,93.8302,0,U,26474,999,41109,.10461E-3,.1619E-4,0
ENVISAT,2002-009A,2026-07-07T21:37:10.677792,14.39069634,.0001356,98.3843,139.7583,84.1029,343.9578,0,U,27386,999,27646,.323E-4,.57E-6,0
IDEFIX & ARIANE 42P R/B,2002-021B,2026-07-07T19:47:59.554176,14.31091489,.0011426,98.5942,126.0847,188.1878,171.9120,0,U,27422,999,26120,.69967E-4,.141E-5,0
AQUA,2002-022A,2026-07-08T04:46:06.231072,14.62189936,.000074,98.4289,158.9030,99.2232,317.2244,0,U,27424,999,28634,.1191E-3,.55E-5,0
CZ-4B R/B,2002-024C,2026-07-08T02:23:55.184064,14.14567571,.005082,98.8689,241.7832,41.9474,346.1653,0,U,27432,999,24626,.25461E-4,.5E-7,0
MIDORI II (ADEOS-II),2002-056A,2026-07-07T20:36:10.645920,14.29360472,.0001773,98.7889,148.2951,49.8161,310.3176,0,U,27597,999,22746,.8572E-4,.173E-5,0
H-2A R/B,2002-056E,2026-07-07T21:02:39.998112,14.33831191,.007043,98.3323,144.7983,162.5650,256.9976,0,U,27601,999,23133,.70963E-4,.161E-5,0
CZ-4B R/B,2003-049C,2026-07-07T23:56:54.441312,14.55112840,.0047248,98.6905,188.6735,223.5302,136.2161,0,U,28059,999,20409,.52833E-4,.179E-5,0
CZ-2C R/B,2004-012C,2026-07-07T19:00:56.008224,15.83625047,.0011124,97.7053,266.9216,214.0361,146.0196,0,U,28222,999,22315,.40687E-3,.89924E-3,0
SL-16 R/B,2004-021B,2026-07-07T19:25:14.530080,14.14614072,.0006505,71.0021,340.4086,231.2930,128.7611,0,U,28353,999,13982,.16058E-3,.261E-5,0
CZ-4B R/B,2004-035C,2026-07-08T01:12:53.103168,15.30924236,.0028866,97.3363,221.8914,259.4014,100.3975,0,U,28415,999,19831,.14816E-3,.4403E-4,0
CZ-2C R/B,2004-046B,2026-07-08T03:45:23.537088,14.27031683,.0139727,98.1927,96.6251,158.1202,202.6028,0,U,28480,999,12568,.40467E-4,.69E-6,0
ARIANE 5 R/B,2004-049H,2026-07-07T22:39:46.027872,14.85473275,.0082998,98.2736,2.0011,322.0693,37.4691,0,U,28499,999,16364,.49924E-4,.391E-5,0
CZ-2D R/B,2005-024B,2026-07-08T01:14:13.396416,15.72050536,.0001204,97.3480,209.5557,221.8324,138.2847,0,U,28738,999,15861,.3136E-3,.40986E-3,0
ALOS (DAICHI),2006-002A,2026-07-08T02:56:26.852928,14.70092501,.0000776,98.1333,144.6261,77.9874,282.1419,0,U,28931,999,9117,.13556E-3,.765E-5,0
H-2A R/B,2006-002B,2026-07-07T22:44:36.940128,15.18366267,.0050309,98.2586,346.6613,190.6572,169.3598,0,U,28932,999,11267,.21616E-3,.4505E-4,0
RESURS-DK 1,2006-021A,2026-07-07T06:17:53.752416,15.13300743,.00067347,69.9330,287.5844,279.9257,80.1149,0,U,29228,999,10561,.9065456E-4,.1509E-4,0
CZ-4B R/B,2006-046C,2026-07-08T03:37:13.268928,15.17944012,.003188,97.5442,233.6933,206.7987,153.1601,0,U,29507,999,7831,.1336E-3,.2676E-4,0
CZ-2C R/B,2007-010B,2026-07-07T21:54:12.659328,14.20280597,.0057941,98.4113,296.2516,305.3713,54.2059,0,U,31114,999,99678,.42349E-4,.5E-6,0
